{
  "type": "FeatureCollection",
  "features": [
    {
      "type": "Feature",
      "properties": {
        "norad_id": 67132,
        "name": "CZ-4B R/B",
        "group": "last-30-days",
        "lat": 13.19748097705748,
        "lon": -111.0131073455416,
        "alt_km": 486.6402387532562,
        "timestamp": "2025-12-18T21:31:49.702674+00:00",
        "meta_object_name": "CZ-4B R/B",
        "meta_object_id": "2025-300B",
        "meta_epoch": "2025-12-18T16:13:04.609056",
        "meta_mean_motion": 15.63831828,
        "meta_eccentricity": 0.0174197,
        "meta_inclination": 97.5563,
        "meta_ra_of_asc_node": 66.966,
        "meta_arg_of_pericenter": 9.3582,
        "meta_mean_anomaly": 351.0851,
        "meta_ephemeris_type": 0,
        "meta_classification_type": "U",
        "meta_norad_cat_id": 67132,
        "meta_element_set_no": 999,
        "meta_rev_at_epoch": 40,
        "meta_bstar": 0.00019566,
        "meta_mean_motion_dot": 0.00040543,
        "meta_mean_motion_ddot": 2.653e-06,
        "tle_line1": "1 67132U 25300B   25352.67574779  .00040543  26530-5  19566-3 0  9995",
        "tle_line2": "2 67132  97.5563  66.9660 0174197   9.3582 351.0851 15.63831828   407"
      },
      "geometry": {
        "type": "Point",
        "coordinates": [
          -111.0131073455416,
          13.19748097705748
        ]
      }
    },
    {
      "type": "Feature",
      "properties": {
        "norad_id": 67160,
        "name": "GALILEO A",
        "group": "last-30-days",
        "lat": 50.76520408446705,
        "lon": -134.60915482172447,
        "alt_km": 22953.604356540152,
        "timestamp": "2025-12-18T21:31:49.702686+00:00",
        "meta_object_name": "GALILEO A",
        "meta_object_id": "2025-302A",
        "meta_epoch": "2025-12-18T03:30:19.807776",
        "meta_mean_motion": 1.72901431,
        "meta_eccentricity": 0.00080329,
        "meta_inclination": 54.2385,
        "meta_ra_of_asc_node": 107.247,
        "meta_arg_of_pericenter": 237.4965,
        "meta_mean_anomaly": 122.3848,
        "meta_ephemeris_type": 0,
        "meta_classification_type": "U",
        "meta_norad_cat_id": 67160,
        "meta_element_set_no": 999,
        "meta_rev_at_epoch": 2,
        "meta_bstar": 0,
        "meta_mean_motion_dot": -7e-08,
        "meta_mean_motion_ddot": 0,
        "tle_line1": "1 67160U 25302A   25352.14606259 -.00000007  00000+0  00000+0 0  9998",
        "tle_line2": "2 67160  54.2385 107.2470 0008032 237.4965 122.3848  1.72901431    27"
      },
      "geometry": {
        "type": "Point",
        "coordinates": [
          -134.60915482172447,
          50.76520408446705
        ]
      }
    },
    {
      "type": "Feature",
      "properties": {
        "norad_id": 67161,
        "name": "GALILEO B",
        "group": "last-30-days",
        "lat": 50.60425358565535,
        "lon": -134.04704744778542,
        "alt_km": 22942.218164960923,
        "timestamp": "2025-12-18T21:31:49.702697+00:00",
        "meta_object_name": "GALILEO B",
        "meta_object_id": "2025-302B",
        "meta_epoch": "2025-12-17T13:37:26.172192",
        "meta_mean_motion": 1.72965674,
        "meta_eccentricity": 0.00048649,
        "meta_inclination": 54.2314,
        "meta_ra_of_asc_node": 107.2469,
        "meta_arg_of_pericenter": 248.2865,
        "meta_mean_anomaly": 111.6205,
        "meta_ephemeris_type": 0,
        "meta_classification_type": "U",
        "meta_norad_cat_id": 67161,
        "meta_element_set_no": 999,
        "meta_rev_at_epoch": 2,
        "meta_bstar": 0,
        "meta_mean_motion_dot": -8e-08,
        "meta_mean_motion_ddot": 0,
        "tle_line1": "1 67161U 25302B   25351.56766403 -.00000008  00000+0  00000+0 0  9993",
        "tle_line2": "2 67161  54.2314 107.2469 0004864 248.2865 111.6205  1.72965674    23"
      },
      "geometry": {
        "type": "Point",
        "coordinates": [
          -134.04704744778542,
          50.60425358565535
        ]
      }
    },
    {
      "type": "Feature",
      "properties": {
        "norad_id": 67162,
        "name": "ARIANE 6 R/B",
        "group": "last-30-days",
        "lat": 50.24287810458422,
        "lon": -132.71069851196543,
        "alt_km": 22911.367300834445,
        "timestamp": "2025-12-18T21:31:49.702707+00:00",
        "meta_object_name": "ARIANE 6 R/B",
        "meta_object_id": "2025-302C",
        "meta_epoch": "2025-12-18T03:29:05.112384",
        "meta_mean_motion": 1.73130383,
        "meta_eccentricity": 4.977e-05,
        "meta_inclination": 54.232,
        "meta_ra_of_asc_node": 107.26,
        "meta_arg_of_pericenter": 134.264,
        "meta_mean_anomaly": 225.699,
        "meta_ephemeris_type": 0,
        "meta_classification_type": "U",
        "meta_norad_cat_id": 67162,
        "meta_element_set_no": 999,
        "meta_rev_at_epoch": 6,
        "meta_bstar": 0,
        "meta_mean_motion_dot": -7e-08,
        "meta_mean_motion_ddot": 0,
        "tle_line1": "1 67162U 25302C   25352.14519806 -.00000007  00000+0  00000+0 0  9991",
        "tle_line2": "2 67162  54.2320 107.2600 0000497 134.2640 225.6990  1.73130383    64"
      },
      "geometry": {
        "type": "Point",
        "coordinates": [
          -132.71069851196543,
          50.24287810458422
        ]
      }
    },
    {
      "type": "Feature",
      "properties": {
        "norad_id": 67219,
        "name": "DISKSAT A",
        "group": "last-30-days",
        "lat": -32.121586290143675,
        "lon": 176.79572429227724,
        "alt_km": 550.023748840883,
        "timestamp": "2025-12-18T21:31:49.702718+00:00",
        "meta_object_name": "DISKSAT A",
        "meta_object_id": "2025-305A",
        "meta_epoch": "2025-12-18T06:11:23.597664",
        "meta_mean_motion": 15.05868419,
        "meta_eccentricity": 0.00043552,
        "meta_inclination": 45.0103,
        "meta_ra_of_asc_node": 321.2665,
        "meta_arg_of_pericenter": 276.2808,
        "meta_mean_anomaly": 83.7571,
        "meta_ephemeris_type": 0,
        "meta_classification_type": "U",
        "meta_norad_cat_id": 67219,
        "meta_element_set_no": 999,
        "meta_rev_at_epoch": 1,
        "meta_bstar": 6.4032814e-05,
        "meta_mean_motion_dot": 7.05e-06,
        "meta_mean_motion_ddot": 0,
        "tle_line1": "1 67219U 25305A   25352.25791201  .00000705  00000+0  64033-4 0  9995",
        "tle_line2": "2 67219  45.0103 321.2665 0004355 276.2808  83.7571 15.05868419    14"
      },
      "geometry": {
        "type": "Point",
        "coordinates": [
          176.79572429227724,
          -32.121586290143675
        ]
      }
    },
    {
      "type": "Feature",
      "properties": {
        "norad_id": 67220,
        "name": "DISKSAT B",
        "group": "last-30-days",
        "lat": -31.54257382336876,
        "lon": 175.7834482464528,
        "alt_km": 552.0842580750214,
        "timestamp": "2025-12-18T21:31:49.702728+00:00",
        "meta_object_name": "DISKSAT B",
        "meta_object_id": "2025-305B",
        "meta_epoch": "2025-12-18T06:11:23.538912",
        "meta_mean_motion": 15.05411903,
        "meta_eccentricity": 0.0003917,
        "meta_inclination": 45.0065,
        "meta_ra_of_asc_node": 321.27,
        "meta_arg_of_pericenter": 288.0087,
        "meta_mean_anomaly": 72.0361,
        "meta_ephemeris_type": 0,
        "meta_classification_type": "U",
        "meta_norad_cat_id": 67220,
        "meta_element_set_no": 999,
        "meta_rev_at_epoch": 1,
        "meta_bstar": 0.00011832,
        "meta_mean_motion_dot": 1.486e-05,
        "meta_mean_motion_ddot": 0,
        "tle_line1": "1 67220U 25305B   25352.25791133  .00001486  00000+0  11832-3 0  9996",
        "tle_line2": "2 67220  45.0065 321.2700 0003917 288.0087  72.0361 15.05411903    16"
      },
      "geometry": {
        "type": "Point",
        "coordinates": [
          175.7834482464528,
          -31.54257382336876
        ]
      }
    },
    {
      "type": "Feature",
      "properties": {
        "norad_id": 67221,
        "name": "DISKSAT C",
        "group": "last-30-days",
        "lat": -42.476951231388725,
        "lon": -155.95646025659255,
        "alt_km": 495.9616406983441,
        "timestamp": "2025-12-18T21:31:49.702740+00:00",
        "meta_object_name": "DISKSAT C",
        "meta_object_id": "2025-305C",
        "meta_epoch": "2025-12-18T06:11:31.580160",
        "meta_mean_motion": 15.16973586,
        "meta_eccentricity": 0.00625938,
        "meta_inclination": 45.0151,
        "meta_ra_of_asc_node": 321.1654,
        "meta_arg_of_pericenter": 307.7869,
        "meta_mean_anomaly": 51.7353,
        "meta_ephemeris_type": 0,
        "meta_classification_type": "U",
        "meta_norad_cat_id": 67221,
        "meta_element_set_no": 999,
        "meta_rev_at_epoch": 1,
        "meta_bstar": 0.00014323237,
        "meta_mean_motion_dot": 2.734e-05,
        "meta_mean_motion_ddot": 0,
        "tle_line1": "1 67221U 25305C   25352.25800440  .00002734  00000+0  14323-3 0  9994",
        "tle_line2": "2 67221  45.0151 321.1654 0062593 307.7869  51.7353 15.16973586    19"
      },
      "geometry": {
        "type": "Point",
        "coordinates": [
          -155.95646025659255,
          -42.476951231388725
        ]
      }
    }
  ]
}